      2.10          N: GNSS NAV DATA                        RINEX VERSION / TYPE
fic2rin                                 05/14/2021 00:17:07 PGM / RUN BY / DATE
                                                            END OF HEADER
29 21  5 13 14  0  0.0-3.463518805802e-04-6.480149750132e-12 0.000000000000e+00
    6.900000000000e+01-5.356250000000e+01 4.208746739767e-09 8.024073568358e-01
   -2.995133399963e-06 1.829330809414e-03 1.622363924980e-06 5.153640016556e+03
    3.960000000000e+05-4.097819328308e-08 2.111313114586e+00-5.774199962616e-08
    9.838867815994e-01 3.596875000000e+02 2.132451281658e+00-8.159982753178e-09
   -2.825117677491e-10 1.000000000000e+00 2.157000000000e+03 0.000000000000e+00
    2.400000000000e+00 0.000000000000e+00-9.778887033463e-09 6.900000000000e+01
    3.888000000000e+05 4.000000000000e+00
31 21  5 13 14  0  0.0-1.170528121293e-04-2.160049916711e-12 0.000000000000e+00
    9.100000000000e+01 3.940625000000e+01 4.443399371133e-09-2.698946943208e+00
    1.901760697365e-06 9.931716718711e-03 1.093931496143e-05 5.153791072845e+03
    3.960000000000e+05-1.490116119385e-07-3.078601525254e-02-1.918524503708e-07
    9.564675099224e-01 1.689687500000e+02 2.625395238936e-01-7.687105913102e-09
   -3.714440435639e-10 1.000000000000e+00 2.157000000000e+03 0.000000000000e+00
    2.400000000000e+00 0.000000000000e+00-1.303851604462e-08 9.100000000000e+01
    3.888000000000e+05 4.000000000000e+00
16 21  5 13 14  0  0.0-3.245333209634e-04-6.025402399246e-12 0.000000000000e+00
    5.600000000000e+01 1.269687500000e+02 4.410183701853e-09 1.559885244465e+00
    6.668269634247e-06 1.221180695575e-02 5.856156349182e-06 5.153697937012e+03
    3.960000000000e+05-2.104789018631e-07 1.081052419430e+00 1.657754182816e-07
    9.738591774409e-01 2.766875000000e+02 6.782557592748e-01-8.168197381064e-09
    1.728643433509e-10 1.000000000000e+00 2.157000000000e+03 0.000000000000e+00
    2.400000000000e+00 0.000000000000e+00-1.024454832077e-08 5.600000000000e+01
    3.888000000000e+05 4.000000000000e+00
 9 21  5 13 14  0  0.0-3.452170640230e-04-2.387423592154e-12 0.000000000000e+00
    5.300000000000e+01-6.718750000000e+00 5.001279751948e-09 1.098379491800e+00
   -2.980232238770e-07 1.850940752774e-03 4.941597580910e-06 5.153776615143e+03
    3.960000000000e+05-2.421438694000e-08-1.120256619756e+00-5.401670932770e-08
    9.529055618730e-01 2.779062500000e+02 1.837010774049e+00-8.236057350562e-09
    1.821504444400e-11 1.000000000000e+00 2.157000000000e+03 0.000000000000e+00
    2.400000000000e+00 0.000000000000e+00 1.396983861923e-09 5.300000000000e+01
    3.888000000000e+05 4.000000000000e+00
 8 21  5 13 14  0  0.0-2.106651663780e-05-1.477928890381e-12 0.000000000000e+00
    5.100000000000e+01-2.346875000000e+01 4.699838624286e-09 6.857941351756e-01
   -1.205131411552e-06 6.342618144117e-03 4.135072231293e-07 5.153595329285e+03
    3.960000000000e+05 5.029141902924e-08 2.021069996329e+00 5.215406417847e-08
    9.672275518128e-01 3.692187500000e+02 4.649902377384e-02-8.494996707854e-09
   -2.539391490134e-10 1.000000000000e+00 2.157000000000e+03 0.000000000000e+00
    2.400000000000e+00 0.000000000000e+00 5.122274160385e-09 5.100000000000e+01
    3.888000000000e+05 4.000000000000e+00
 6 21  5 13 14  0  0.0 1.538312062621e-05 3.637978807092e-12 0.000000000000e+00
    1.000000000000e+02-1.043125000000e+02 3.683724870498e-09-1.326070100965e+00
   -5.424022674561e-06 2.226433134638e-03 9.033828973770e-06 5.153767511368e+03
    3.960000000000e+05-1.862645149231e-08 3.087325059367e+00 5.401670932770e-08
    9.840565590942e-01 2.194375000000e+02-9.722689386753e-01-7.641746880859e-09
   -1.096474243982e-10 1.000000000000e+00 2.157000000000e+03 0.000000000000e+00
    3.400000000000e+00 0.000000000000e+00 4.190951585770e-09 1.000000000000e+02
    3.888000000000e+05 4.000000000000e+00
 7 21  5 13 14  0  0.0 1.496854238212e-04 1.068656274583e-11 0.000000000000e+00
    6.100000000000e+01 2.012500000000e+01 4.531617331480e-09-2.130032666993e+00
    7.525086402893e-07 1.487663073931e-02 1.033209264278e-05 5.153763738632e+03
    3.960000000000e+05 1.639127731323e-07-4.777215749068e-02-9.126961231232e-08
    9.521445928498e-01 1.712812500000e+02-2.336440982397e+00-7.706749588483e-09
   -2.060800126311e-10 1.000000000000e+00 2.157000000000e+03 0.000000000000e+00
    2.400000000000e+00 0.000000000000e+00-1.117587089539e-08 6.100000000000e+01
    3.888000000000e+05 4.000000000000e+00
 4 21  5 13 14  0  0.0-1.960960216820e-04-1.591615728103e-12 0.000000000000e+00
    1.190000000000e+02-1.003125000000e+01 4.830201197268e-09 6.290382138522e-02
   -4.470348358154e-07 1.222006860189e-03 5.295500159264e-06 5.153737346649e+03
    3.960000000000e+05 4.097819328308e-08-1.069514327485e+00 3.725290298462e-09
    9.600778966523e-01 2.770937500000e+02-2.916829472238e+00-8.103908988909e-09
   -3.821587755898e-11 1.000000000000e+00 2.157000000000e+03 0.000000000000e+00
    2.400000000000e+00 0.000000000000e+00-4.190951585770e-09 8.870000000000e+02
    3.888000000000e+05 4.000000000000e+00
27 21  5 13 14  0  0.0-1.293504610658e-04-6.593836587854e-12 0.000000000000e+00
    6.400000000000e+01-2.846875000000e+01 4.549118060456e-09 6.157676728752e-01
   -1.292675733566e-06 9.428177610971e-03 8.177012205124e-07 5.153680665970e+03
    3.960000000000e+05-4.097819328308e-08 2.038214827143e+00 1.229345798492e-07
    9.758085889274e-01 3.683437500000e+02 6.211281558180e-01-8.468209877789e-09
   -2.850118718885e-10 1.000000000000e+00 2.157000000000e+03 0.000000000000e+00
    2.400000000000e+00 0.000000000000e+00 1.862645149231e-09 6.400000000000e+01
    3.888000000000e+05 4.000000000000e+00
30 21  5 13 14  0  0.0-4.255189560354e-04-5.002220859751e-12 0.000000000000e+00
    3.700000000000e+01 2.050000000000e+01 4.919490630817e-09-2.284299350465e+00
    8.121132850647e-07 5.198276252486e-03 1.079775393009e-05 5.153711181641e+03
    3.960000000000e+05 0.000000000000e+00-3.040134386943e-02-8.381903171539e-08
    9.373632905207e-01 1.622812500000e+02-2.789463523278e+00-8.016405344031e-09
   -3.007268121931e-10 1.000000000000e+00 2.157000000000e+03 0.000000000000e+00
    2.400000000000e+00 0.000000000000e+00 3.725290298462e-09 3.700000000000e+01
    3.888000000000e+05 4.000000000000e+00
15 21  5 13 14  0  0.0-1.496844924986e-04 2.614797267597e-12 0.000000000000e+00
    1.000000000000e+02-5.437500000000e+00 5.683808181996e-09-2.622912842505e-01
   -1.080334186554e-07 1.313139335252e-02 4.729256033897e-06 5.153601638794e+03
    3.960000000000e+05-2.421438694000e-08-1.218986299878e+00 1.657754182816e-07
    9.285254103418e-01 2.732812500000e+02 9.812569303413e-01-8.788223207629e-09
    3.071556514086e-11 1.000000000000e+00 2.157000000000e+03 0.000000000000e+00
    2.400000000000e+00 0.000000000000e+00-1.071020960808e-08 1.000000000000e+02
    3.888000000000e+05 4.000000000000e+00
22 21  5 13 14  0  0.0-6.153099238873e-04 9.436007530894e-12 0.000000000000e+00
    7.300000000000e+01-5.656250000000e+00 4.920204946285e-09-3.306284287326e-01
   -2.514570951462e-07 7.038460928015e-03 9.259209036827e-06 5.153537782669e+03
    3.960000000000e+05-1.341104507446e-07-2.249414829774e+00-1.266598701477e-07
    9.346810784986e-01 1.900937500000e+02-9.738098697870e-01-8.137838973658e-09
    5.482371219910e-10 1.000000000000e+00 2.157000000000e+03 0.000000000000e+00
    2.400000000000e+00 0.000000000000e+00-1.769512891769e-08 7.300000000000e+01
    3.888000000000e+05 4.000000000000e+00
32 21  5 13 14  0  0.0 2.127932384610e-05-6.821210263297e-13 0.000000000000e+00
    6.900000000000e+01-9.593750000000e+00 4.937705675261e-09 1.360892121408e+00
   -5.587935447693e-07 4.949915921316e-03 5.178153514862e-06 5.153660890579e+03
    3.960000000000e+05-8.009374141693e-08-1.110277565460e+00 4.097819328308e-08
    9.568896758959e-01 2.740000000000e+02-2.369392297808e+00-8.195341368863e-09
   -1.164334213479e-10 1.000000000000e+00 2.157000000000e+03 0.000000000000e+00
    2.400000000000e+00 0.000000000000e+00 4.656612873077e-10 6.900000000000e+01
    3.888000000000e+05 4.000000000000e+00
21 21  5 13 14  0  0.0 1.178360544145e-04 2.614797267597e-12 0.000000000000e+00
    3.900000000000e+01-1.297187500000e+02 4.390182868738e-09 8.094693246865e-01
   -7.299706339836e-06 2.407544886228e-02 7.998198270798e-06 5.153694860458e+03
    3.960000000000e+05-1.117587089539e-08 3.012250417875e+00-4.861503839493e-07
    9.573913631703e-01 2.317187500000e+02-1.140723253302e+00-8.302488689122e-09
   -2.721541934574e-10 1.000000000000e+00 2.157000000000e+03 0.000000000000e+00
    2.400000000000e+00 0.000000000000e+00-1.024454832077e-08 3.900000000000e+01
    3.888000000000e+05 4.000000000000e+00
17 21  5 13 14  0  0.0 4.417328163981e-04 6.025402399246e-12 0.000000000000e+00
    2.300000000000e+01-3.768750000000e+01 4.363396038674e-09 6.459781937104e-01
   -2.063810825348e-06 1.334742980544e-02 1.728534698486e-06 5.153592617035e+03
    3.960000000000e+05-1.490116119385e-07 2.098872257357e+00-3.911554813385e-08
    9.820255752955e-01 3.626250000000e+02-1.568530118935e+00-8.425708107420e-09
   -2.828689254833e-10 1.000000000000e+00 2.157000000000e+03 0.000000000000e+00
    2.400000000000e+00 0.000000000000e+00-1.117587089539e-08 2.300000000000e+01
    3.888000000000e+05 4.000000000000e+00
19 21  5 13 14  0  0.0-5.168840289116e-07 5.002220859751e-12 0.000000000000e+00
    5.100000000000e+01-5.421875000000e+01 4.277321024732e-09 3.128980196070e+00
   -2.717599272728e-06 9.263289743103e-03 1.242384314537e-06 5.153634700775e+03
    3.960000000000e+05 2.011656761169e-07 2.144062842812e+00 1.285225152969e-07
    9.805680568469e-01 3.653125000000e+02 1.830436254892e+00-8.075693527908e-09
   -2.410814705824e-10 1.000000000000e+00 2.157000000000e+03 0.000000000000e+00
    2.400000000000e+00 0.000000000000e+00-1.536682248116e-08 5.100000000000e+01
    3.888000000000e+05 4.000000000000e+00
